[{"OBJECT_NAME":"ONEWEB-0230","OBJECT_ID":"2021-045C","EPOCH":"2025-09-02T21:30:33.428736","MEAN_MOTION":13.15548634,"ECCENTRICITY":0.00019751,"INCLINATION":87.9046,"RA_OF_ASC_NODE":316.5384,"ARG_OF_PERICENTER":94.8062,"MEAN_ANOMALY":265.3294,"EPHEMERIS_TYPE":0,"CLASSIFICATION_TYPE":"U","NORAD_CAT_ID":48769,"ELEMENT_SET_NO":999,"REV_AT_EPOCH":20689,"BSTAR":0.00013776518,"MEAN_MOTION_DOT":6.5e-7,"MEAN_MOTION_DDOT":0},{"OBJECT_NAME":"ONEWEB-0237","OBJECT_ID":"2021-045D","EPOCH":"2025-09-03T04:32:40.031808","MEAN_MOTION":13.15548355,"ECCENTRICITY":0.0001632,"INCLINATION":87.9066,"RA_OF_ASC_NODE":316.4735,"ARG_OF_PERICENTER":89.9306,"MEAN_ANOMALY":270.2011,"EPHEMERIS_TYPE":0,"CLASSIFICATION_TYPE":"U","NORAD_CAT_ID":48770,"ELEMENT_SET_NO":999,"REV_AT_EPOCH":20665,"BSTAR":0.00037547809,"MEAN_MOTION_DOT":1.54e-6,"MEAN_MOTION_DDOT":0},{"OBJECT_NAME":"ONEWEB-0235","OBJECT_ID":"2021-045E","EPOCH":"2025-09-03T03:56:09.713184","MEAN_MOTION":13.15547806,"ECCENTRICITY":0.0001532,"INCLINATION":87.905,"RA_OF_ASC_NODE":316.4522,"ARG_OF_PERICENTER":82.754,"MEAN_ANOMALY":277.3765,"EPHEMERIS_TYPE":0,"CLASSIFICATION_TYPE":"U","NORAD_CAT_ID":48771,"ELEMENT_SET_NO":999,"REV_AT_EPOCH":20664,"BSTAR":-9.1464667e-5,"MEAN_MOTION_DOT":-2.2e-7,"MEAN_MOTION_DDOT":0},{"OBJECT_NAME":"ONEWEB-0242","OBJECT_ID":"2021-045F","EPOCH":"2025-09-03T03:47:02.168736","MEAN_MOTION":13.15548562,"ECCENTRICITY":0.00018529,"INCLINATION":87.9059,"RA_OF_ASC_NODE":316.439,"ARG_OF_PERICENTER":91.8063,"MEAN_ANOMALY":268.3279,"EPHEMERIS_TYPE":0,"CLASSIFICATION_TYPE":"U","NORAD_CAT_ID":48772,"ELEMENT_SET_NO":999,"REV_AT_EPOCH":20668,"BSTAR":-0.00017980747,"MEAN_MOTION_DOT":-5.5e-7,"MEAN_MOTION_DDOT":0},{"OBJECT_NAME":"ONEWEB-0241","OBJECT_ID":"2021-045G","EPOCH":"2025-09-02T18:21:09.916704","MEAN_MOTION":13.15548329,"ECCENTRICITY":0.00013986,"INCLINATION":87.9043,"RA_OF_ASC_NODE":316.5665,"ARG_OF_PERICENTER":99.9806,"MEAN_ANOMALY":260.1482,"EPHEMERIS_TYPE":0,"CLASSIFICATION_TYPE":"U","NORAD_CAT_ID":48773,"ELEMENT_SET_NO":999,"REV_AT_EPOCH":20654,"BSTAR":-0.00037190388,"MEAN_MOTION_DOT":-1.27e-6,"MEAN_MOTION_DDOT":0},{"OBJECT_NAME":"ONEWEB-0243","OBJECT_ID":"2021-045H","EPOCH":"2025-09-03T04:14:25.355040","MEAN_MOTION":13.15548021,"ECCENTRICITY":0.00016195,"INCLINATION":87.9062,"RA_OF_ASC_NODE":316.4851,"ARG_OF_PERICENTER":84.4571,"MEAN_ANOMALY":275.6744,"EPHEMERIS_TYPE":0,"CLASSIFICATION_TYPE":"U","NORAD_CAT_ID":48774,"ELEMENT_SET_NO":999,"REV_AT_EPOCH":20662,"BSTAR":0.00029428593,"MEAN_MOTION_DOT":1.24e-6,"MEAN_MOTION_DDOT":0},{"OBJECT_NAME":"ONEWEB-0222","OBJECT_ID":"2021-045J","EPOCH":"2025-09-03T03:50:26.995488","MEAN_MOTION":13.15551657,"ECCENTRICITY":0.00017168,"INCLINATION":87.9056,"RA_OF_ASC_NODE":316.4411,"ARG_OF_PERICENTER":97.0717,"MEAN_ANOMALY":263.0609,"EPHEMERIS_TYPE":0,"CLASSIFICATION_TYPE":"U","NORAD_CAT_ID":48775,"ELEMENT_SET_NO":999,"REV_AT_EPOCH":20666,"BSTAR":-8.1319319e-5,"MEAN_MOTION_DOT":-1.8e-7,"MEAN_MOTION_DDOT":0},{"OBJECT_NAME":"ONEWEB-0244","OBJECT_ID":"2021-045K","EPOCH":"2025-09-03T04:28:06.616416","MEAN_MOTION":13.15548393,"ECCENTRICITY":0.00018966,"INCLINATION":87.9062,"RA_OF_ASC_NODE":316.4177,"ARG_OF_PERICENTER":91.3166,"MEAN_ANOMALY":268.8182,"EPHEMERIS_TYPE":0,"CLASSIFICATION_TYPE":"U","NORAD_CAT_ID":48776,"ELEMENT_SET_NO":999,"REV_AT_EPOCH":20723,"BSTAR":0.00038865462,"MEAN_MOTION_DOT":1.59e-6,"MEAN_MOTION_DDOT":0},{"OBJECT_NAME":"ONEWEB-0247","OBJECT_ID":"2021-045L","EPOCH":"2025-09-03T04:23:32.940960","MEAN_MOTION":13.15549877,"ECCENTRICITY":0.00014118,"INCLINATION":87.905,"RA_OF_ASC_NODE":316.4884,"ARG_OF_PERICENTER":66.4018,"MEAN_ANOMALY":293.726,"EPHEMERIS_TYPE":0,"CLASSIFICATION_TYPE":"U","NORAD_CAT_ID":48777,"ELEMENT_SET_NO":999,"REV_AT_EPOCH":20667,"BSTAR":0.00029549803,"MEAN_MOTION_DOT":1.24e-6,"MEAN_MOTION_DDOT":0},{"OBJECT_NAME":"ONEWEB-0245","OBJECT_ID":"2021-045M","EPOCH":"2025-09-03T04:16:42.223872","MEAN_MOTION":13.155483,"ECCENTRICITY":0.00016539,"INCLINATION":87.9048,"RA_OF_ASC_NODE":316.4528,"ARG_OF_PERICENTER":100.6039,"MEAN_ANOMALY":259.5278,"EPHEMERIS_TYPE":0,"CLASSIFICATION_TYPE":"U","NORAD_CAT_ID":48778,"ELEMENT_SET_NO":999,"REV_AT_EPOCH":20664,"BSTAR":0.00039980538,"MEAN_MOTION_DOT":1.63e-6,"MEAN_MOTION_DDOT":0},{"OBJECT_NAME":"ONEWEB-0229","OBJECT_ID":"2021-045N","EPOCH":"2025-09-03T04:09:50.858784","MEAN_MOTION":13.15549375,"ECCENTRICITY":0.00018249,"INCLINATION":87.9049,"RA_OF_ASC_NODE":316.4538,"ARG_OF_PERICENTER":91.9173,"MEAN_ANOMALY":268.2166,"EPHEMERIS_TYPE":0,"CLASSIFICATION_TYPE":"U","NORAD_CAT_ID":48779,"ELEMENT_SET_NO":999,"REV_AT_EPOCH":20667,"BSTAR":0.00019521679,"MEAN_MOTION_DOT":8.6e-7,"MEAN_MOTION_DDOT":0},{"OBJECT_NAME":"ONEWEB-0228","OBJECT_ID":"2021-045P","EPOCH":"2025-09-03T03:08:26.209824","MEAN_MOTION":13.15550026,"ECCENTRICITY":0.00017942,"INCLINATION":87.9057,"RA_OF_ASC_NODE":316.4369,"ARG_OF_PERICENTER":94.7131,"MEAN_ANOMALY":265.4205,"EPHEMERIS_TYPE":0,"CLASSIFICATION_TYPE":"U","NORAD_CAT_ID":48780,"ELEMENT_SET_NO":999,"REV_AT_EPOCH":20658,"BSTAR":2.1586847e-5,"MEAN_MOTION_DOT":2.1e-7,"MEAN_MOTION_DDOT":0},{"OBJECT_NAME":"ONEWEB-0232","OBJECT_ID":"2021-045Q","EPOCH":"2025-09-03T04:21:15.945120","MEAN_MOTION":13.15548082,"ECCENTRICITY":0.00018415,"INCLINATION":87.9053,"RA_OF_ASC_NODE":316.4198,"ARG_OF_PERICENTER":96.2391,"MEAN_ANOMALY":263.8949,"EPHEMERIS_TYPE":0,"CLASSIFICATION_TYPE":"U","NORAD_CAT_ID":48781,"ELEMENT_SET_NO":999,"REV_AT_EPOCH":20691,"BSTAR":0.00029814762,"MEAN_MOTION_DOT":1.25e-6,"MEAN_MOTION_DDOT":0},{"OBJECT_NAME":"ONEWEB-0231","OBJECT_ID":"2021-045R","EPOCH":"2025-09-03T03:49:18.348096","MEAN_MOTION":13.15548592,"ECCENTRICITY":0.00016952,"INCLINATION":87.9048,"RA_OF_ASC_NODE":316.4763,"ARG_OF_PERICENTER":89.8963,"MEAN_ANOMALY":270.2362,"EPHEMERIS_TYPE":0,"CLASSIFICATION_TYPE":"U","NORAD_CAT_ID":48782,"ELEMENT_SET_NO":999,"REV_AT_EPOCH":20660,"BSTAR":-6.2483485e-5,"MEAN_MOTION_DOT":-1.1e-7,"MEAN_MOTION_DDOT":0},{"OBJECT_NAME":"ONEWEB-0234","OBJECT_ID":"2021-045S","EPOCH":"2025-09-02T21:25:48.503136","MEAN_MOTION":13.15550731,"ECCENTRICITY":0.00020335,"INCLINATION":87.9053,"RA_OF_ASC_NODE":316.4978,"ARG_OF_PERICENTER":123.37,"MEAN_ANOMALY":236.7625,"EPHEMERIS_TYPE":0,"CLASSIFICATION_TYPE":"U","NORAD_CAT_ID":48783,"ELEMENT_SET_NO":999,"REV_AT_EPOCH":20670,"BSTAR":0.00024319275,"MEAN_MOTION_DOT":1.04e-6,"MEAN_MOTION_DDOT":0},{"OBJECT_NAME":"ONEWEB-0238","OBJECT_ID":"2021-045T","EPOCH":"2025-09-02T21:26:11.671296","MEAN_MOTION":13.15548982,"ECCENTRICITY":0.00019241,"INCLINATION":87.9049,"RA_OF_ASC_NODE":316.494,"ARG_OF_PERICENTER":108.6656,"MEAN_ANOMALY":251.4684,"EPHEMERIS_TYPE":0,"CLASSIFICATION_TYPE":"U","NORAD_CAT_ID":48784,"ELEMENT_SET_NO":999,"REV_AT_EPOCH":20660,"BSTAR":0.0002489254,"MEAN_MOTION_DOT":1.07e-6,"MEAN_MOTION_DDOT":0}]
