ONEWEB-0230             
1 48769U 21045C   25245.89622024  .00000065  00000+0  13777-3 0  9995
2 48769  87.9046 316.5384 0001975  94.8062 265.3294 13.15548634206897
ONEWEB-0237             
1 48770U 21045D   25246.18935222  .00000154  00000+0  37548-3 0  9998
2 48770  87.9066 316.4735 0001632  89.9306 270.2011 13.15548355206652
ONEWEB-0235             
1 48771U 21045E   25246.16400131 -.00000022  00000+0 -91465-4 0  9998
2 48771  87.9050 316.4522 0001532  82.7540 277.3765 13.15547806206643
ONEWEB-0242             
1 48772U 21045F   25246.15766399 -.00000055  00000+0 -17981-3 0  9995
2 48772  87.9059 316.4390 0001852  91.8063 268.3279 13.15548562206686
ONEWEB-0241             
1 48773U 21045G   25245.76469811 -.00000127  00000+0 -37190-3 0  9995
2 48773  87.9043 316.5665 0001398  99.9806 260.1482 13.15548329206547
ONEWEB-0243             
1 48774U 21045H   25246.17668235  .00000124  00000+0  29429-3 0  9994
2 48774  87.9062 316.4851 0001619  84.4571 275.6744 13.15548021206629
ONEWEB-0222             
1 48775U 21045J   25246.16003467 -.00000018  00000+0 -81319-4 0  9995
2 48775  87.9056 316.4411 0001716  97.0717 263.0609 13.15551657206669
ONEWEB-0244             
1 48776U 21045K   25246.18618769  .00000159  00000+0  38865-3 0  9996
2 48776  87.9062 316.4177 0001896  91.3166 268.8182 13.15548393207236
ONEWEB-0247             
1 48777U 21045L   25246.18302015  .00000124  00000+0  29550-3 0  9994
2 48777  87.9050 316.4884 0001411  66.4018 293.7260 13.15549877206670
ONEWEB-0245             
1 48778U 21045M   25246.17826648  .00000163  00000+0  39981-3 0  9999
2 48778  87.9048 316.4528 0001653 100.6039 259.5278 13.15548300206641
ONEWEB-0229             
1 48779U 21045N   25246.17350531  .00000086  00000+0  19522-3 0  9996
2 48779  87.9049 316.4538 0001824  91.9173 268.2166 13.15549375206674
ONEWEB-0228             
1 48780U 21045P   25246.13085891  .00000021  00000+0  21587-4 0  9992
2 48780  87.9057 316.4369 0001794  94.7131 265.4205 13.15550026206586
ONEWEB-0232             
1 48781U 21045Q   25246.18143455  .00000125  00000+0  29815-3 0  9995
2 48781  87.9053 316.4198 0001841  96.2391 263.8949 13.15548082206914
ONEWEB-0231             
1 48782U 21045R   25246.15924014 -.00000011  00000+0 -62483-4 0  9996
2 48782  87.9048 316.4763 0001695  89.8963 270.2362 13.15548592206600
ONEWEB-0234             
1 48783U 21045S   25245.89292249  .00000104  00000+0  24319-3 0  9991
2 48783  87.9053 316.4978 0002033 123.3700 236.7625 13.15550731206703
ONEWEB-0238             
1 48784U 21045T   25245.89319064  .00000107  00000+0  24893-3 0  9997
2 48784  87.9049 316.4940 0001924 108.6656 251.4684 13.15548982206605
